start=new Date('2022-12-14T00:00:00.000Z').valueOf();
sats=[{"TLE_LINE1":"1 49435U 21104AD  22347.84831768 -.00000430  00000-0 -88746-5 0  9993","RA_OF_ASC_NODE":"114.6117","PERIOD":"95.438","ECCENTRICITY":"0.00026270","EPOCH":"2022-12-13T20:21:34.647552","OBJECT_NAME":"STARLINK-3117","SEMIMAJOR_AXIS":"6917.906","BSTAR":"-0.00000887460000","MEAN_ELEMENT_THEORY":"SGP4","ARG_OF_PERICENTER":"54.9407","TIME_SYSTEM":"UTC","OBJECT_ID":"2021-104AD","REV_AT_EPOCH":"6049","COUNTRY_CODE":"US","SITE":"AFETR","NORAD_CAT_ID":"49435","GP_ID":"220321155","MEAN_MOTION":"15.08831614","MEAN_MOTION_DDOT":"0.0000000000000","PERIAPSIS":"537.954","ELEMENT_SET_NO":"999","OBJECT_TYPE":"PAYLOAD","CLASSIFICATION_TYPE":"U","MEAN_ANOMALY":"305.1832","LAUNCH_DATE":"2021-11-13","APOAPSIS":"541.588","FILE":"3698003","REF_FRAME":"TEME","MEAN_MOTION_DOT":"-0.00000430","DECAY_DATE":null,"EPHEMERIS_TYPE":"0","CENTER_NAME":"EARTH","RCS_SIZE":"LARGE","INCLINATION":"53.2169","TLE_LINE2":"2 49435  53.2169 114.6117 0002627  54.9407 305.1832 15.08831614 60498"},{"TLE_LINE1":"1 49436U 21104AE  22347.78111628 -.00001089  00000-0 -50318-4 0  9997","RA_OF_ASC_NODE":"114.9238","PERIOD":"95.438","ECCENTRICITY":"0.00025850","EPOCH":"2022-12-13T18:44:48.446592","OBJECT_NAME":"STARLINK-3049","SEMIMAJOR_AXIS":"6917.889","BSTAR":"-0.00005031800000","MEAN_ELEMENT_THEORY":"SGP4","OBJECT_ID":"2021-104AE","TIME_SYSTEM":"UTC","ARG_OF_PERICENTER":"54.1111","COUNTRY_CODE":"US","REV_AT_EPOCH":"6155","SITE":"AFETR","NORAD_CAT_ID":"49436","GP_ID":"220291278","MEAN_MOTION_DDOT":"0.0000000000000","MEAN_MOTION":"15.08837079","PERIAPSIS":"537.966","ELEMENT_SET_NO":"999","OBJECT_TYPE":"PAYLOAD","MEAN_ANOMALY":"306.0120","CLASSIFICATION_TYPE":"U","LAUNCH_DATE":"2021-11-13","APOAPSIS":"541.543","FILE":"3697726","DECAY_DATE":null,"MEAN_MOTION_DOT":"-0.00001089","REF_FRAME":"TEME","CENTER_NAME":"EARTH","RCS_SIZE":"LARGE","EPHEMERIS_TYPE":"0","INCLINATION":"53.2183","TLE_LINE2":"2 49436  53.2183 114.9238 0002585  54.1111 306.0120 15.08837079 61558"},{"SITE":"AFETR","GP_ID":"220320654","NORAD_CAT_ID":"49437","TIME_SYSTEM":"UTC","ARG_OF_PERICENTER":"53.6519","OBJECT_ID":"2021-104AF","REV_AT_EPOCH":"6049","COUNTRY_CODE":"US","BSTAR":"0.00004393700000","MEAN_ELEMENT_THEORY":"SGP4","OBJECT_NAME":"STARLINK-3130","SEMIMAJOR_AXIS":"6917.877","ECCENTRICITY":"0.00030810","EPOCH":"2022-12-13T20:09:35.420256","TLE_LINE1":"1 49437U 21104AF  22347.83999329  .00000411  00000-0  43937-4 0  9991","PERIOD":"95.437","RA_OF_ASC_NODE":"114.6593","TLE_LINE2":"2 49437  53.2166 114.6593 0003081  53.6519 306.4758 15.08840996 60494","EPHEMERIS_TYPE":"0","RCS_SIZE":"LARGE","CENTER_NAME":"EARTH","INCLINATION":"53.2166","MEAN_MOTION_DOT":"0.00000411","REF_FRAME":"TEME","DECAY_DATE":null,"APOAPSIS":"541.874","FILE":"3698003","LAUNCH_DATE":"2021-11-13","OBJECT_TYPE":"PAYLOAD","ELEMENT_SET_NO":"999","CLASSIFICATION_TYPE":"U","MEAN_ANOMALY":"306.4758","MEAN_MOTION":"15.08840996","MEAN_MOTION_DDOT":"0.0000000000000","PERIAPSIS":"537.611"},{"RA_OF_ASC_NODE":"114.6761","PERIOD":"95.438","TLE_LINE1":"1 49438U 21104AG  22347.83631393  .00000674  00000-0  60450-4 0  9996","EPOCH":"2022-12-13T20:04:17.523552","ECCENTRICITY":"0.00027180","SEMIMAJOR_AXIS":"6917.902","OBJECT_NAME":"STARLINK-3044","MEAN_ELEMENT_THEORY":"SGP4","BSTAR":"0.00006045000000","COUNTRY_CODE":"US","REV_AT_EPOCH":"6156","OBJECT_ID":"2021-104AG","TIME_SYSTEM":"UTC","ARG_OF_PERICENTER":"49.8741","NORAD_CAT_ID":"49438","GP_ID":"220291419","SITE":"AFETR","PERIAPSIS":"537.886","MEAN_MOTION_DDOT":"0.0000000000000","MEAN_MOTION":"15.08833091","MEAN_ANOMALY":"310.2489","CLASSIFICATION_TYPE":"U","OBJECT_TYPE":"PAYLOAD","ELEMENT_SET_NO":"999","LAUNCH_DATE":"2021-11-13","FILE":"3697716","APOAPSIS":"541.647","DECAY_DATE":null,"MEAN_MOTION_DOT":"0.00000674","REF_FRAME":"TEME","INCLINATION":"53.2166","RCS_SIZE":"LARGE","CENTER_NAME":"EARTH","EPHEMERIS_TYPE":"0","TLE_LINE2":"2 49438  53.2166 114.6761 0002718  49.8741 310.2489 15.08833091 61563"},{"LAUNCH_DATE":"2021-11-13","MEAN_ANOMALY":"319.8226","CLASSIFICATION_TYPE":"U","OBJECT_TYPE":"PAYLOAD","ELEMENT_SET_NO":"999","PERIAPSIS":"537.649","MEAN_MOTION":"15.08837106","MEAN_MOTION_DDOT":"0.0000000000000","TLE_LINE2":"2 49439  53.2160 115.6493 0003043  40.2991 319.8226 15.08837106 61559","INCLINATION":"53.2160","CENTER_NAME":"EARTH","RCS_SIZE":"LARGE","EPHEMERIS_TYPE":"0","DECAY_DATE":null,"MEAN_MOTION_DOT":"0.00000444","REF_FRAME":"TEME","FILE":"3697716","APOAPSIS":"541.859","SEMIMAJOR_AXIS":"6917.889","OBJECT_NAME":"STARLINK-3108","EPOCH":"2022-12-13T14:51:38.514528","ECCENTRICITY":"0.00030430","PERIOD":"95.438","RA_OF_ASC_NODE":"115.6493","TLE_LINE1":"1 49439U 21104AH  22347.61919577  .00000444  00000-0  46002-4 0  9998","GP_ID":"220291422","NORAD_CAT_ID":"49439","SITE":"AFETR","COUNTRY_CODE":"US","REV_AT_EPOCH":"6155","OBJECT_ID":"2021-104AH","ARG_OF_PERICENTER":"40.2991","TIME_SYSTEM":"UTC","MEAN_ELEMENT_THEORY":"SGP4","BSTAR":"0.00004600200000"},{"PERIOD":"95.437","RA_OF_ASC_NODE":"114.9941","TLE_LINE1":"1 49440U 21104AJ  22347.76639334  .00000478  00000-0  48150-4 0  9999","SEMIMAJOR_AXIS":"6917.875","OBJECT_NAME":"STARLINK-3105","EPOCH":"2022-12-13T18:23:36.384576","ECCENTRICITY":"0.00031150","MEAN_ELEMENT_THEORY":"SGP4","BSTAR":"0.00004815000000","GP_ID":"220321399","NORAD_CAT_ID":"49440","SITE":"AFETR","REV_AT_EPOCH":"6048","COUNTRY_CODE":"US","ARG_OF_PERICENTER":"60.4728","TIME_SYSTEM":"UTC","OBJECT_ID":"2021-104AJ","MEAN_ANOMALY":"299.6575","CLASSIFICATION_TYPE":"U","OBJECT_TYPE":"PAYLOAD","ELEMENT_SET_NO":"999","PERIAPSIS":"537.585","MEAN_MOTION":"15.08841702","MEAN_MOTION_DDOT":"0.0000000000000","LAUNCH_DATE":"2021-11-13","MEAN_MOTION_DOT":"0.00000478","REF_FRAME":"TEME","DECAY_DATE":null,"FILE":"3698003","APOAPSIS":"541.895","TLE_LINE2":"2 49440  53.2169 114.9941 0003115  60.4728 299.6575 15.08841702 60482","INCLINATION":"53.2169","EPHEMERIS_TYPE":"0","RCS_SIZE":"LARGE","CENTER_NAME":"EARTH"},{"MEAN_MOTION_DOT":"-0.00000893","REF_FRAME":"TEME","DECAY_DATE":null,"APOAPSIS":"542.209","FILE":"3698003","TLE_LINE2":"2 49441  53.2147 115.0693 0003545  57.3613 302.7721 15.08836402 60480","EPHEMERIS_TYPE":"0","RCS_SIZE":"LARGE","CENTER_NAME":"EARTH","INCLINATION":"53.2147","OBJECT_TYPE":"PAYLOAD","ELEMENT_SET_NO":"999","MEAN_ANOMALY":"302.7721","CLASSIFICATION_TYPE":"U","MEAN_MOTION_DDOT":"0.0000000000000","MEAN_MOTION":"15.08836402","PERIAPSIS":"537.304","LAUNCH_DATE":"2021-11-13","BSTAR":"-0.00003797100000","MEAN_ELEMENT_THEORY":"SGP4","SITE":"AFETR","NORAD_CAT_ID":"49441","GP_ID":"220320154","TIME_SYSTEM":"UTC","ARG_OF_PERICENTER":"57.3613","OBJECT_ID":"2021-104AK","REV_AT_EPOCH":"6048","COUNTRY_CODE":"US","TLE_LINE1":"1 49441U 21104AK  22347.74800473 -.00000893  00000-0 -37971-4 0  9994","PERIOD":"95.438","RA_OF_ASC_NODE":"115.0693","OBJECT_NAME":"STARLINK-3128","SEMIMAJOR_AXIS":"6917.891","ECCENTRICITY":"0.00035450","EPOCH":"2022-12-13T17:57:07.608672"},{"APOAPSIS":"541.574","FILE":"3697729","MEAN_MOTION_DOT":"-0.00000278","REF_FRAME":"TEME","DECAY_DATE":null,"EPHEMERIS_TYPE":"0","CENTER_NAME":"EARTH","RCS_SIZE":"LARGE","INCLINATION":"53.2162","TLE_LINE2":"2 49442  53.2162 114.7060 0002648  51.6544 308.4686 15.08840962 61575","MEAN_MOTION_DDOT":"0.0000000000000","MEAN_MOTION":"15.08840962","PERIAPSIS":"537.911","ELEMENT_SET_NO":"999","OBJECT_TYPE":"PAYLOAD","CLASSIFICATION_TYPE":"U","MEAN_ANOMALY":"308.4686","LAUNCH_DATE":"2021-11-13","BSTAR":"0.00000064308000","MEAN_ELEMENT_THEORY":"SGP4","ARG_OF_PERICENTER":"51.6544","TIME_SYSTEM":"UTC","OBJECT_ID":"2021-104AL","REV_AT_EPOCH":"6157","COUNTRY_CODE":"US","SITE":"AFETR","NORAD_CAT_ID":"49442","GP_ID":"220291447","TLE_LINE1":"1 49442U 21104AL  22347.82895210 -.00000278  00000-0  64308-6 0  9999","PERIOD":"95.437","RA_OF_ASC_NODE":"114.7060","ECCENTRICITY":"0.00026480","EPOCH":"2022-12-13T19:53:41.461440","OBJECT_NAME":"STARLINK-3098","SEMIMAJOR_AXIS":"6917.877"},{"OBJECT_ID":"2021-104AM","ARG_OF_PERICENTER":"38.3647","TIME_SYSTEM":"UTC","COUNTRY_CODE":"US","REV_AT_EPOCH":"6048","SITE":"AFETR","NORAD_CAT_ID":"49443","GP_ID":"220321156","BSTAR":"0.00002721100000","MEAN_ELEMENT_THEORY":"SGP4","ECCENTRICITY":"0.00027060","EPOCH":"2022-12-13T17:51:48.423744","OBJECT_NAME":"STARLINK-3136","SEMIMAJOR_AXIS":"6917.891","TLE_LINE1":"1 49443U 21104AM  22347.74431046  .00000145  00000-0  27211-4 0  9996","PERIOD":"95.438","RA_OF_ASC_NODE":"115.0793","CENTER_NAME":"EARTH","RCS_SIZE":"LARGE","EPHEMERIS_TYPE":"0","INCLINATION":"53.2158","TLE_LINE2":"2 49443  53.2158 115.0793 0002706  38.3647 321.7537 15.08836659 60489","APOAPSIS":"541.628","FILE":"3698003","DECAY_DATE":null,"MEAN_MOTION_DOT":"0.00000145","REF_FRAME":"TEME","LAUNCH_DATE":"2021-11-13","MEAN_MOTION":"15.08836659","MEAN_MOTION_DDOT":"0.0000000000000","PERIAPSIS":"537.884","ELEMENT_SET_NO":"999","OBJECT_TYPE":"PAYLOAD","MEAN_ANOMALY":"321.7537","CLASSIFICATION_TYPE":"U"},{"COUNTRY_CODE":"US","REV_AT_EPOCH":"6046","OBJECT_ID":"2021-104AN","ARG_OF_PERICENTER":"58.4735","TIME_SYSTEM":"UTC","NORAD_CAT_ID":"49444","GP_ID":"220321900","SITE":"AFETR","MEAN_ELEMENT_THEORY":"SGP4","BSTAR":"0.00008979600000","EPOCH":"2022-12-13T15:02:14.359776","ECCENTRICITY":"0.00027080","SEMIMAJOR_AXIS":"6917.882","OBJECT_NAME":"STARLINK-3126","PERIOD":"95.438","RA_OF_ASC_NODE":"115.6127","TLE_LINE1":"1 49444U 21104AN  22347.62655509  .00001141  00000-0  89796-4 0  9999","INCLINATION":"53.2166","RCS_SIZE":"LARGE","CENTER_NAME":"EARTH","EPHEMERIS_TYPE":"0","TLE_LINE2":"2 49444  53.2166 115.6127 0002708  58.4735 301.6521 15.08839315 60469","FILE":"3698003","APOAPSIS":"541.621","DECAY_DATE":null,"MEAN_MOTION_DOT":"0.00001141","REF_FRAME":"TEME","LAUNCH_DATE":"2021-11-13","PERIAPSIS":"537.874","MEAN_MOTION":"15.08839315","MEAN_MOTION_DDOT":"0.0000000000000","CLASSIFICATION_TYPE":"U","MEAN_ANOMALY":"301.6521","OBJECT_TYPE":"PAYLOAD","ELEMENT_SET_NO":"999"}];
